[{"OBJECT_NAME":"ONEWEB-0642","OBJECT_ID":"2023-029L","EPOCH":"2026-02-03T04:56:19.836960","MEAN_MOTION":13.19727443,"ECCENTRICITY":0.00011711,"INCLINATION":87.9244,"RA_OF_ASC_NODE":331.6498,"ARG_OF_PERICENTER":104.3153,"MEAN_ANOMALY":255.811,"EPHEMERIS_TYPE":0,"CLASSIFICATION_TYPE":"U","NORAD_CAT_ID":55806,"ELEMENT_SET_NO":999,"REV_AT_EPOCH":14123,"BSTAR":0.00017649588,"MEAN_MOTION_DOT":8.4e-7,"MEAN_MOTION_DDOT":0},{"OBJECT_NAME":"ONEWEB-0643","OBJECT_ID":"2023-029M","EPOCH":"2026-02-03T06:04:11.395488","MEAN_MOTION":13.14502704,"ECCENTRICITY":0.00013901,"INCLINATION":87.9026,"RA_OF_ASC_NODE":316.4415,"ARG_OF_PERICENTER":101.2347,"MEAN_ANOMALY":258.8939,"EPHEMERIS_TYPE":0,"CLASSIFICATION_TYPE":"U","NORAD_CAT_ID":55807,"ELEMENT_SET_NO":999,"REV_AT_EPOCH":14179,"BSTAR":-2.7585143e-5,"MEAN_MOTION_DOT":3.0e-8,"MEAN_MOTION_DDOT":0},{"OBJECT_NAME":"ONEWEB-0644","OBJECT_ID":"2023-029N","EPOCH":"2026-02-03T04:49:31.489824","MEAN_MOTION":13.1972625,"ECCENTRICITY":0.00015075,"INCLINATION":87.9241,"RA_OF_ASC_NODE":331.659,"ARG_OF_PERICENTER":90.0403,"MEAN_ANOMALY":270.0902,"EPHEMERIS_TYPE":0,"CLASSIFICATION_TYPE":"U","NORAD_CAT_ID":55808,"ELEMENT_SET_NO":999,"REV_AT_EPOCH":14123,"BSTAR":7.9842211e-5,"MEAN_MOTION_DOT":4.5e-7,"MEAN_MOTION_DDOT":0},{"OBJECT_NAME":"ONEWEB-0645","OBJECT_ID":"2023-029P","EPOCH":"2026-02-03T05:21:20.630016","MEAN_MOTION":13.1972429,"ECCENTRICITY":0.00012145,"INCLINATION":87.9235,"RA_OF_ASC_NODE":331.6466,"ARG_OF_PERICENTER":74.1512,"MEAN_ANOMALY":285.9754,"EPHEMERIS_TYPE":0,"CLASSIFICATION_TYPE":"U","NORAD_CAT_ID":55809,"ELEMENT_SET_NO":999,"REV_AT_EPOCH":14123,"BSTAR":0.00016182861,"MEAN_MOTION_DOT":7.8e-7,"MEAN_MOTION_DDOT":0},{"OBJECT_NAME":"ONEWEB-0646","OBJECT_ID":"2023-029Q","EPOCH":"2026-02-03T05:46:21.980352","MEAN_MOTION":13.19723676,"ECCENTRICITY":0.00015728,"INCLINATION":87.925,"RA_OF_ASC_NODE":331.6405,"ARG_OF_PERICENTER":86.4573,"MEAN_ANOMALY":273.6739,"EPHEMERIS_TYPE":0,"CLASSIFICATION_TYPE":"U","NORAD_CAT_ID":55810,"ELEMENT_SET_NO":999,"REV_AT_EPOCH":14122,"BSTAR":0.00016614406,"MEAN_MOTION_DOT":7.9e-7,"MEAN_MOTION_DDOT":0},{"OBJECT_NAME":"ONEWEB-0648","OBJECT_ID":"2023-029R","EPOCH":"2026-02-03T05:18:31.080384","MEAN_MOTION":13.14502566,"ECCENTRICITY":7.401e-5,"INCLINATION":87.9029,"RA_OF_ASC_NODE":316.4112,"ARG_OF_PERICENTER":76.557,"MEAN_ANOMALY":283.5642,"EPHEMERIS_TYPE":0,"CLASSIFICATION_TYPE":"U","NORAD_CAT_ID":55811,"ELEMENT_SET_NO":999,"REV_AT_EPOCH":14179,"BSTAR":0.00065977868,"MEAN_MOTION_DOT":2.57e-6,"MEAN_MOTION_DDOT":0},{"OBJECT_NAME":"ONEWEB-0649","OBJECT_ID":"2023-029S","EPOCH":"2026-02-03T04:33:35.831520","MEAN_MOTION":13.19725707,"ECCENTRICITY":0.00013603,"INCLINATION":87.925,"RA_OF_ASC_NODE":331.6476,"ARG_OF_PERICENTER":81.0057,"MEAN_ANOMALY":279.1229,"EPHEMERIS_TYPE":0,"CLASSIFICATION_TYPE":"U","NORAD_CAT_ID":55812,"ELEMENT_SET_NO":999,"REV_AT_EPOCH":14125,"BSTAR":-0.00045157711,"MEAN_MOTION_DOT":-1.68e-6,"MEAN_MOTION_DDOT":0},{"OBJECT_NAME":"ONEWEB-0650","OBJECT_ID":"2023-029T","EPOCH":"2026-02-03T04:26:45.809088","MEAN_MOTION":13.19722109,"ECCENTRICITY":0.0001358,"INCLINATION":87.9246,"RA_OF_ASC_NODE":331.6525,"ARG_OF_PERICENTER":87.2597,"MEAN_ANOMALY":272.8691,"EPHEMERIS_TYPE":0,"CLASSIFICATION_TYPE":"U","NORAD_CAT_ID":55813,"ELEMENT_SET_NO":999,"REV_AT_EPOCH":14122,"BSTAR":-0.00034683348,"MEAN_MOTION_DOT":-1.26e-6,"MEAN_MOTION_DDOT":0},{"OBJECT_NAME":"ONEWEB-0652","OBJECT_ID":"2023-029U","EPOCH":"2026-02-03T04:51:07.934688","MEAN_MOTION":13.14503232,"ECCENTRICITY":0.00018862,"INCLINATION":87.9022,"RA_OF_ASC_NODE":316.4325,"ARG_OF_PERICENTER":77.0458,"MEAN_ANOMALY":283.0883,"EPHEMERIS_TYPE":0,"CLASSIFICATION_TYPE":"U","NORAD_CAT_ID":55814,"ELEMENT_SET_NO":999,"REV_AT_EPOCH":14176,"BSTAR":-0.00022341513,"MEAN_MOTION_DOT":-7.0e-7,"MEAN_MOTION_DDOT":0},{"OBJECT_NAME":"ONEWEB-0653","OBJECT_ID":"2023-029V","EPOCH":"2026-02-03T06:17:52.748448","MEAN_MOTION":13.14559638,"ECCENTRICITY":0.00015025,"INCLINATION":87.9026,"RA_OF_ASC_NODE":316.4101,"ARG_OF_PERICENTER":59.4155,"MEAN_ANOMALY":300.7122,"EPHEMERIS_TYPE":0,"CLASSIFICATION_TYPE":"U","NORAD_CAT_ID":55815,"ELEMENT_SET_NO":999,"REV_AT_EPOCH":14180,"BSTAR":-0.03155234,"MEAN_MOTION_DOT":-0.0001168,"MEAN_MOTION_DDOT":0},{"OBJECT_NAME":"ONEWEB-0654","OBJECT_ID":"2023-029W","EPOCH":"2026-02-03T06:11:02.964480","MEAN_MOTION":13.14502712,"ECCENTRICITY":0.00020706,"INCLINATION":87.9026,"RA_OF_ASC_NODE":316.4114,"ARG_OF_PERICENTER":73.3001,"MEAN_ANOMALY":286.8356,"EPHEMERIS_TYPE":0,"CLASSIFICATION_TYPE":"U","NORAD_CAT_ID":55816,"ELEMENT_SET_NO":999,"REV_AT_EPOCH":14182,"BSTAR":-0.00031226831,"MEAN_MOTION_DOT":-1.03e-6,"MEAN_MOTION_DDOT":0},{"OBJECT_NAME":"ONEWEB-0656","OBJECT_ID":"2023-029X","EPOCH":"2026-02-03T04:34:03.087264","MEAN_MOTION":13.20774312,"ECCENTRICITY":0.00020533,"INCLINATION":87.9219,"RA_OF_ASC_NODE":301.1696,"ARG_OF_PERICENTER":73.6572,"MEAN_ANOMALY":286.4787,"EPHEMERIS_TYPE":0,"CLASSIFICATION_TYPE":"U","NORAD_CAT_ID":55817,"ELEMENT_SET_NO":999,"REV_AT_EPOCH":14346,"BSTAR":0.00014132976,"MEAN_MOTION_DOT":7.0e-7,"MEAN_MOTION_DDOT":0},{"OBJECT_NAME":"ONEWEB-0657","OBJECT_ID":"2023-029Y","EPOCH":"2026-02-03T06:09:07.219584","MEAN_MOTION":13.19726612,"ECCENTRICITY":0.00024095,"INCLINATION":87.924,"RA_OF_ASC_NODE":331.6373,"ARG_OF_PERICENTER":90.2613,"MEAN_ANOMALY":269.8796,"EPHEMERIS_TYPE":0,"CLASSIFICATION_TYPE":"U","NORAD_CAT_ID":55818,"ELEMENT_SET_NO":999,"REV_AT_EPOCH":14124,"BSTAR":6.7724455e-5,"MEAN_MOTION_DOT":4.0e-7,"MEAN_MOTION_DDOT":0},{"OBJECT_NAME":"ONEWEB-0658","OBJECT_ID":"2023-029Z","EPOCH":"2026-02-03T06:02:18.137184","MEAN_MOTION":13.19726528,"ECCENTRICITY":0.00014375,"INCLINATION":87.9255,"RA_OF_ASC_NODE":331.6011,"ARG_OF_PERICENTER":91.0179,"MEAN_ANOMALY":269.1119,"EPHEMERIS_TYPE":0,"CLASSIFICATION_TYPE":"U","NORAD_CAT_ID":55819,"ELEMENT_SET_NO":999,"REV_AT_EPOCH":14125,"BSTAR":2.0595395e-5,"MEAN_MOTION_DOT":2.1e-7,"MEAN_MOTION_DDOT":0},{"OBJECT_NAME":"ONEWEB-0660","OBJECT_ID":"2023-029AA","EPOCH":"2026-02-03T05:39:04.588992","MEAN_MOTION":13.14504467,"ECCENTRICITY":0.00014352,"INCLINATION":87.9034,"RA_OF_ASC_NODE":316.3987,"ARG_OF_PERICENTER":70.5505,"MEAN_ANOMALY":289.5779,"EPHEMERIS_TYPE":0,"CLASSIFICATION_TYPE":"U","NORAD_CAT_ID":55820,"ELEMENT_SET_NO":999,"REV_AT_EPOCH":14180,"BSTAR":0.00059149118,"MEAN_MOTION_DOT":2.32e-6,"MEAN_MOTION_DDOT":0},{"OBJECT_NAME":"ONEWEB-0661","OBJECT_ID":"2023-029AB","EPOCH":"2026-02-03T04:39:42.477696","MEAN_MOTION":13.14504632,"ECCENTRICITY":0.00015648,"INCLINATION":87.9022,"RA_OF_ASC_NODE":316.4672,"ARG_OF_PERICENTER":67.8748,"MEAN_ANOMALY":292.2548,"EPHEMERIS_TYPE":0,"CLASSIFICATION_TYPE":"U","NORAD_CAT_ID":55821,"ELEMENT_SET_NO":999,"REV_AT_EPOCH":14178,"BSTAR":-0.00058427477,"MEAN_MOTION_DOT":-2.04e-6,"MEAN_MOTION_DDOT":0}]
