ONEWEB-0642             
1 55806U 23029L   26034.20578515  .00000084  00000+0  17650-3 0  9991
2 55806  87.9244 331.6498 0001171 104.3153 255.8110 13.19727443141235
ONEWEB-0643             
1 55807U 23029M   26034.25290967  .00000003  00000+0 -27585-4 0  9990
2 55807  87.9026 316.4415 0001390 101.2347 258.8939 13.14502704141797
ONEWEB-0644             
1 55808U 23029N   26034.20105891  .00000045  00000+0  79842-4 0  9995
2 55808  87.9241 331.6590 0001507  90.0403 270.0902 13.19726250141232
ONEWEB-0645             
1 55809U 23029P   26034.22315544  .00000078  00000+0  16183-3 0  9990
2 55809  87.9235 331.6466 0001214  74.1512 285.9754 13.19724290141239
ONEWEB-0646             
1 55810U 23029Q   26034.24053218  .00000079  00000+0  16614-3 0  9991
2 55810  87.9250 331.6405 0001572  86.4573 273.6739 13.19723676141224
ONEWEB-0648             
1 55811U 23029R   26034.22119306  .00000257  00000+0  65978-3 0  9996
2 55811  87.9029 316.4112 0000740  76.5570 283.5642 13.14502566141791
ONEWEB-0649             
1 55812U 23029S   26034.18999805 -.00000168  00000+0 -45158-3 0  9993
2 55812  87.9250 331.6476 0001360  81.0057 279.1229 13.19725707141252
ONEWEB-0650             
1 55813U 23029T   26034.18525242 -.00000126  00000+0 -34683-3 0  9999
2 55813  87.9246 331.6525 0001358  87.2597 272.8691 13.19722109141220
ONEWEB-0652             
1 55814U 23029U   26034.20217517 -.00000070  00000+0 -22342-3 0  9993
2 55814  87.9022 316.4325 0001886  77.0458 283.0883 13.14503232141766
ONEWEB-0653             
1 55815U 23029V   26034.26241607 -.00011680  00000+0 -31552-1 0  9997
2 55815  87.9026 316.4101 0001502  59.4155 300.7122 13.14559638141805
ONEWEB-0654             
1 55816U 23029W   26034.25767320 -.00000103  00000+0 -31227-3 0  9991
2 55816  87.9026 316.4114 0002070  73.3001 286.8356 13.14502712141822
ONEWEB-0656             
1 55817U 23029X   26034.19031351  .00000070  00000+0  14133-3 0  9991
2 55817  87.9219 301.1696 0002053  73.6572 286.4787 13.20774312143460
ONEWEB-0657             
1 55818U 23029Y   26034.25633356  .00000040  00000+0  67724-4 0  9994
2 55818  87.9240 331.6373 0002409  90.2613 269.8796 13.19726612141248
ONEWEB-0658             
1 55819U 23029Z   26034.25159881  .00000021  00000+0  20595-4 0  9995
2 55819  87.9255 331.6011 0001437  91.0179 269.1119 13.19726528141259
ONEWEB-0660             
1 55820U 23029AA  26034.23546978  .00000232  00000+0  59149-3 0  9992
2 55820  87.9034 316.3987 0001435  70.5505 289.5779 13.14504467141801
ONEWEB-0661             
1 55821U 23029AB  26034.19424164 -.00000204  00000+0 -58427-3 0  9999
2 55821  87.9022 316.4672 0001564  67.8748 292.2548 13.14504632141788
